[{"OBJECT_NAME":"STARLINK-4772","OBJECT_ID":"2022-119AY","EPOCH":"2026-03-09T21:15:35.911584","MEAN_MOTION":15.08818879,"ECCENTRICITY":0.00013895,"INCLINATION":53.2179,"RA_OF_ASC_NODE":298.3347,"ARG_OF_PERICENTER":80.9598,"MEAN_ANOMALY":279.1551,"EPHEMERIS_TYPE":0,"CLASSIFICATION_TYPE":"U","NORAD_CAT_ID":53932,"ELEMENT_SET_NO":999,"REV_AT_EPOCH":19207,"BSTAR":0.00013629849,"MEAN_MOTION_DOT":1.881e-5,"MEAN_MOTION_DDOT":0},{"OBJECT_NAME":"OBJECT H","OBJECT_ID":"2025-292H","EPOCH":"2026-03-09T22:24:53.558208","MEAN_MOTION":15.06373042,"ECCENTRICITY":0.00142604,"INCLINATION":97.6442,"RA_OF_ASC_NODE":145.7846,"ARG_OF_PERICENTER":348.9217,"MEAN_ANOMALY":11.1694,"EPHEMERIS_TYPE":0,"CLASSIFICATION_TYPE":"U","NORAD_CAT_ID":67000,"ELEMENT_SET_NO":999,"REV_AT_EPOCH":1338,"BSTAR":0.0005462937,"MEAN_MOTION_DOT":8.001e-5,"MEAN_MOTION_DDOT":0}]
